[{"OBJECT_NAME":"CENTISPACE-1 OBJECT K","OBJECT_ID":"2026-060K","EPOCH":"2026-04-04T15:27:21.758112","MEAN_MOTION":14.75283234,"ECCENTRICITY":0.0014769,"INCLINATION":54.98,"RA_OF_ASC_NODE":335.6935,"ARG_OF_PERICENTER":336.0624,"MEAN_ANOMALY":23.9687,"EPHEMERIS_TYPE":0,"CLASSIFICATION_TYPE":"U","NORAD_CAT_ID":68359,"ELEMENT_SET_NO":999,"REV_AT_EPOCH":192,"BSTAR":4.3130657e-5,"MEAN_MOTION_DOT":8.4e-7,"MEAN_MOTION_DDOT":0},{"OBJECT_NAME":"RASSVET-3 1","OBJECT_ID":"2026-061A","EPOCH":"2026-04-13T06:08:52.283616","MEAN_MOTION":15.86215352,"ECCENTRICITY":0.00217914,"INCLINATION":82.2937,"RA_OF_ASC_NODE":85.4578,"ARG_OF_PERICENTER":0.2872,"MEAN_ANOMALY":359.8406,"EPHEMERIS_TYPE":0,"CLASSIFICATION_TYPE":"U","NORAD_CAT_ID":68360,"ELEMENT_SET_NO":999,"REV_AT_EPOCH":326,"BSTAR":0.00025557887,"MEAN_MOTION_DOT":0.0006462,"MEAN_MOTION_DDOT":2.85911e-7},{"OBJECT_NAME":"RASSVET-3 2","OBJECT_ID":"2026-061B","EPOCH":"2026-04-13T02:57:03.033792","MEAN_MOTION":15.90568581,"ECCENTRICITY":0.00233521,"INCLINATION":82.2959,"RA_OF_ASC_NODE":85.593,"ARG_OF_PERICENTER":357.7478,"MEAN_ANOMALY":2.3685,"EPHEMERIS_TYPE":0,"CLASSIFICATION_TYPE":"U","NORAD_CAT_ID":68361,"ELEMENT_SET_NO":999,"REV_AT_EPOCH":324,"BSTAR":0.00029281826,"MEAN_MOTION_DOT":0.00092152,"MEAN_MOTION_DDOT":1.862393e-6},{"OBJECT_NAME":"RASSVET-3 3","OBJECT_ID":"2026-061C","EPOCH":"2026-04-13T05:57:58.375584","MEAN_MOTION":15.90594521,"ECCENTRICITY":0.00230049,"INCLINATION":82.2957,"RA_OF_ASC_NODE":85.4495,"ARG_OF_PERICENTER":357.0626,"MEAN_ANOMALY":3.0507,"EPHEMERIS_TYPE":0,"CLASSIFICATION_TYPE":"U","NORAD_CAT_ID":68362,"ELEMENT_SET_NO":999,"REV_AT_EPOCH":326,"BSTAR":0.0002704427,"MEAN_MOTION_DOT":0.00085188,"MEAN_MOTION_DDOT":1.427679e-6},{"OBJECT_NAME":"RASSVET-3 4","OBJECT_ID":"2026-061D","EPOCH":"2026-04-13T04:27:40.565088","MEAN_MOTION":15.90382857,"ECCENTRICITY":0.00234501,"INCLINATION":82.2963,"RA_OF_ASC_NODE":85.5218,"ARG_OF_PERICENTER":357.3447,"MEAN_ANOMALY":2.7696,"EPHEMERIS_TYPE":0,"CLASSIFICATION_TYPE":"U","NORAD_CAT_ID":68363,"ELEMENT_SET_NO":999,"REV_AT_EPOCH":325,"BSTAR":0.00025634187,"MEAN_MOTION_DOT":0.00079973,"MEAN_MOTION_DDOT":1.119284e-6},{"OBJECT_NAME":"RASSVET-3 5","OBJECT_ID":"2026-061E","EPOCH":"2026-04-13T05:57:36.053280","MEAN_MOTION":15.90542313,"ECCENTRICITY":0.00231023,"INCLINATION":82.2958,"RA_OF_ASC_NODE":85.4492,"ARG_OF_PERICENTER":357.0046,"MEAN_ANOMALY":3.1083,"EPHEMERIS_TYPE":0,"CLASSIFICATION_TYPE":"U","NORAD_CAT_ID":68364,"ELEMENT_SET_NO":999,"REV_AT_EPOCH":326,"BSTAR":0.00027207294,"MEAN_MOTION_DOT":0.00085489,"MEAN_MOTION_DDOT":1.444374e-6},{"OBJECT_NAME":"RASSVET-3 6","OBJECT_ID":"2026-061F","EPOCH":"2026-04-13T05:55:38.130240","MEAN_MOTION":15.90694338,"ECCENTRICITY":0.00228819,"INCLINATION":82.296,"RA_OF_ASC_NODE":85.4471,"ARG_OF_PERICENTER":357.2712,"MEAN_ANOMALY":2.8431,"EPHEMERIS_TYPE":0,"CLASSIFICATION_TYPE":"U","NORAD_CAT_ID":68365,"ELEMENT_SET_NO":999,"REV_AT_EPOCH":326,"BSTAR":0.00027079614,"MEAN_MOTION_DOT":0.00085713,"MEAN_MOTION_DDOT":1.461885e-6},{"OBJECT_NAME":"RASSVET-3 7","OBJECT_ID":"2026-061G","EPOCH":"2026-04-13T05:56:59.356608","MEAN_MOTION":15.90582639,"ECCENTRICITY":0.00228841,"INCLINATION":82.2958,"RA_OF_ASC_NODE":85.4487,"ARG_OF_PERICENTER":357.0482,"MEAN_ANOMALY":3.0651,"EPHEMERIS_TYPE":0,"CLASSIFICATION_TYPE":"U","NORAD_CAT_ID":68366,"ELEMENT_SET_NO":999,"REV_AT_EPOCH":326,"BSTAR":0.00026750624,"MEAN_MOTION_DOT":0.00084195,"MEAN_MOTION_DDOT":1.368057e-6},{"OBJECT_NAME":"RASSVET-3 8","OBJECT_ID":"2026-061H","EPOCH":"2026-04-13T05:57:18.469152","MEAN_MOTION":15.90547747,"ECCENTRICITY":0.00229352,"INCLINATION":82.2959,"RA_OF_ASC_NODE":85.4488,"ARG_OF_PERICENTER":356.8745,"MEAN_ANOMALY":3.238,"EPHEMERIS_TYPE":0,"CLASSIFICATION_TYPE":"U","NORAD_CAT_ID":68367,"ELEMENT_SET_NO":999,"REV_AT_EPOCH":326,"BSTAR":0.00026684733,"MEAN_MOTION_DOT":0.00083848,"MEAN_MOTION_DDOT":1.34666e-6},{"OBJECT_NAME":"RASSVET-3 9","OBJECT_ID":"2026-061J","EPOCH":"2026-04-13T05:50:15.438336","MEAN_MOTION":15.91061801,"ECCENTRICITY":0.00223526,"INCLINATION":82.2948,"RA_OF_ASC_NODE":85.4395,"ARG_OF_PERICENTER":358.5802,"MEAN_ANOMALY":1.5402,"EPHEMERIS_TYPE":0,"CLASSIFICATION_TYPE":"U","NORAD_CAT_ID":68368,"ELEMENT_SET_NO":999,"REV_AT_EPOCH":326,"BSTAR":0.000260256,"MEAN_MOTION_DOT":0.00083862,"MEAN_MOTION_DDOT":1.360516e-6},{"OBJECT_NAME":"RASSVET-3 10","OBJECT_ID":"2026-061K","EPOCH":"2026-04-13T05:56:42.850752","MEAN_MOTION":15.90487912,"ECCENTRICITY":0.00229612,"INCLINATION":82.2962,"RA_OF_ASC_NODE":85.4486,"ARG_OF_PERICENTER":356.9529,"MEAN_ANOMALY":3.1599,"EPHEMERIS_TYPE":0,"CLASSIFICATION_TYPE":"U","NORAD_CAT_ID":68369,"ELEMENT_SET_NO":999,"REV_AT_EPOCH":326,"BSTAR":0.00026022454,"MEAN_MOTION_DOT":0.00081531,"MEAN_MOTION_DDOT":1.210286e-6},{"OBJECT_NAME":"RASSVET-3 11","OBJECT_ID":"2026-061L","EPOCH":"2026-04-13T05:55:58.679616","MEAN_MOTION":15.90519447,"ECCENTRICITY":0.0022739,"INCLINATION":82.2961,"RA_OF_ASC_NODE":85.4475,"ARG_OF_PERICENTER":356.8214,"MEAN_ANOMALY":3.2909,"EPHEMERIS_TYPE":0,"CLASSIFICATION_TYPE":"U","NORAD_CAT_ID":68370,"ELEMENT_SET_NO":999,"REV_AT_EPOCH":326,"BSTAR":0.00026035189,"MEAN_MOTION_DOT":0.00081665,"MEAN_MOTION_DDOT":1.218747e-6},{"OBJECT_NAME":"RASSVET-3 12","OBJECT_ID":"2026-061M","EPOCH":"2026-04-13T05:54:13.774464","MEAN_MOTION":15.90858296,"ECCENTRICITY":0.00223352,"INCLINATION":82.2958,"RA_OF_ASC_NODE":85.4458,"ARG_OF_PERICENTER":356.8358,"MEAN_ANOMALY":3.2769,"EPHEMERIS_TYPE":0,"CLASSIFICATION_TYPE":"U","NORAD_CAT_ID":68371,"ELEMENT_SET_NO":999,"REV_AT_EPOCH":326,"BSTAR":0.00027952977,"MEAN_MOTION_DOT":0.0008911,"MEAN_MOTION_DDOT":1.676628e-6},{"OBJECT_NAME":"RASSVET-3 13","OBJECT_ID":"2026-061N","EPOCH":"2026-04-13T05:53:32.521920","MEAN_MOTION":15.90954392,"ECCENTRICITY":0.00219052,"INCLINATION":82.2955,"RA_OF_ASC_NODE":85.4447,"ARG_OF_PERICENTER":356.8594,"MEAN_ANOMALY":3.2536,"EPHEMERIS_TYPE":0,"CLASSIFICATION_TYPE":"U","NORAD_CAT_ID":68372,"ELEMENT_SET_NO":999,"REV_AT_EPOCH":326,"BSTAR":0.00027419278,"MEAN_MOTION_DOT":0.0008777,"MEAN_MOTION_DDOT":1.595542e-6},{"OBJECT_NAME":"RASSVET-3 14","OBJECT_ID":"2026-061P","EPOCH":"2026-04-13T05:52:11.723232","MEAN_MOTION":15.91035635,"ECCENTRICITY":0.00220161,"INCLINATION":82.2957,"RA_OF_ASC_NODE":85.4434,"ARG_OF_PERICENTER":356.7142,"MEAN_ANOMALY":3.3982,"EPHEMERIS_TYPE":0,"CLASSIFICATION_TYPE":"U","NORAD_CAT_ID":68373,"ELEMENT_SET_NO":999,"REV_AT_EPOCH":326,"BSTAR":0.00027177711,"MEAN_MOTION_DOT":0.00087382,"MEAN_MOTION_DDOT":1.573828e-6}]
