CENTISPACE-1 OBJECT K   
1 68359U 26060K   26094.64400183  .00000084  00000+0  43131-4 0  9999
2 68359  54.9800 335.6935 0014769 336.0624  23.9687 14.75283234  1920
RASSVET-3 1             
1 68360U 26061A   26103.25616069  .00064620  28591-6  25558-3 0  9992
2 68360  82.2937  85.4578 0021791   0.2872 359.8406 15.86215352  3266
RASSVET-3 2             
1 68361U 26061B   26103.12295178  .00092152  18624-5  29282-3 0  9997
2 68361  82.2959  85.5930 0023352 357.7478   2.3685 15.90568581  3248
RASSVET-3 3             
1 68362U 26061C   26103.24859231  .00085188  14277-5  27044-3 0  9992
2 68362  82.2957  85.4495 0023004 357.0626   3.0507 15.90594521  3260
RASSVET-3 4             
1 68363U 26061D   26103.18588617  .00079973  11193-5  25634-3 0  9995
2 68363  82.2963  85.5218 0023450 357.3447   2.7696 15.90382857  3252
RASSVET-3 5             
1 68364U 26061E   26103.24833395  .00085489  14444-5  27207-3 0  9998
2 68364  82.2958  85.4492 0023102 357.0046   3.1083 15.90542313  3267
RASSVET-3 6             
1 68365U 26061F   26103.24696910  .00085713  14619-5  27080-3 0  9992
2 68365  82.2960  85.4471 0022881 357.2712   2.8431 15.90694338  3261
RASSVET-3 7             
1 68366U 26061G   26103.24790922  .00084195  13681-5  26751-3 0  9996
2 68366  82.2958  85.4487 0022884 357.0482   3.0651 15.90582639  3268
RASSVET-3 8             
1 68367U 26061H   26103.24813043  .00083848  13467-5  26685-3 0  9999
2 68367  82.2959  85.4488 0022935 356.8745   3.2380 15.90547747  3269
RASSVET-3 9             
1 68368U 26061J   26103.24323424  .00083862  13605-5  26026-3 0  9998
2 68368  82.2948  85.4395 0022352 358.5802   1.5402 15.91061801  3260
RASSVET-3 10            
1 68369U 26061K   26103.24771818  .00081531  12103-5  26022-3 0  9992
2 68369  82.2962  85.4486 0022961 356.9529   3.1599 15.90487912  3261
RASSVET-3 11            
1 68370U 26061L   26103.24720694  .00081665  12187-5  26035-3 0  9994
2 68370  82.2961  85.4475 0022739 356.8214   3.2909 15.90519447  3268
RASSVET-3 12            
1 68371U 26061M   26103.24599276  .00089110  16766-5  27953-3 0  9995
2 68371  82.2958  85.4458 0022335 356.8358   3.2769 15.90858296  3269
RASSVET-3 13            
1 68372U 26061N   26103.24551530  .00087770  15955-5  27419-3 0  9993
2 68372  82.2955  85.4447 0021905 356.8594   3.2536 15.90954392  3265
RASSVET-3 14            
1 68373U 26061P   26103.24458013  .00087382  15738-5  27178-3 0  9996
2 68373  82.2957  85.4434 0022016 356.7142   3.3982 15.91035635  3263
